{"type":"FeatureCollection","features":[{"type":"Feature","name":"ShapeMeta","geometry":{"type":"LineString","coordinates":[[6.095366,49.75637],[6.096071,49.75618]]},"properties":{"name":"Rue Jean-Baptiste Neuens","highway":"residential","maxspeed":"30","profile":"car","distance":"55.08255","time":"8.813208"}},{"type":"Feature","name":"ShapeMeta","geometry":{"type":"LineString","coordinates":[[6.096071,49.75618],[6.096538,49.75603],[6.096588,49.75602]]},"properties":{"name":"Rue Jean-Baptiste Neuens","highway":"residential","maxspeed":"30","profile":"car","distance":"96.48255","time":"15.43721"}},{"type":"Feature","name":"ShapeMeta","geometry":{"type":"LineString","coordinates":[[6.096588,49.75602],[6.097086,49.75583],[6.097807,49.75548],[6.098022,49.75534],[6.098207,49.75526]]},"properties":{"name":"Rue Jean-Baptiste Neuens","highway":"residential","maxspeed":"30","profile":"car","distance":"240.1826","time":"38.42921"}},{"type":"Feature","name":"ShapeMeta","geometry":{"type":"LineString","coordinates":[[6.098207,49.75526],[6.098184,49.7552],[6.098176,49.75496],[6.098142,49.75477],[6.09791,49.7542],[6.097845,49.75398],[6.097775,49.75362],[6.097751,49.7533]]},"properties":{"name":"Rue Am Wangert","highway":"residential","maxspeed":"30","profile":"car","distance":"461.9826","time":"73.91721"}},{"type":"Feature","name":"ShapeMeta","geometry":{"type":"LineString","coordinates":[[6.097751,49.7533],[6.097733,49.75304],[6.097744,49.75263]]},"properties":{"name":"Rue Am Wangert","highway":"residential","maxspeed":"30","profile":"car","distance":"536.5826","time":"85.85321"}},{"type":"Feature","name":"ShapeMeta","geometry":{"type":"LineString","coordinates":[[6.097744,49.75263],[6.098333,49.75264],[6.09886,49.75266]]},"properties":{"name":"Rue des Soeurs Franciscaines","highway":"residential","maxspeed":"30","profile":"car","distance":"616.8406","time":"98.6945"}},{"type":"Feature","name":"Stop","Shape":"0","geometry":{"type":"Point","coordinates":[6.095363,49.75636]},"properties":{"distance":"0","time":"0"}},{"type":"Feature","name":"Stop","Shape":"18","geometry":{"type":"Point","coordinates":[6.098861,49.75263]},"properties":{"distance":"616.8406","time":"98.6945"}}]}